NORAD_CAT_ID,OBJECT_NAME,OBJECT_TYPE,EPOCH,MEAN_MOTION,ECCENTRICITY,INCLINATION,RA_OF_ASC_NODE,ARG_OF_PERICENTER,MEAN_ANOMALY,BSTAR,MEAN_MOTION_DOT,MEAN_MOTION_DDOT,TLE_LINE0,TLE_LINE1,TLE_LINE2,SEMIMAJOR_AXIS,PERIOD,APOGEE,PERIGEE,DECAYED
54789.0,STARLINK-5446,PAYLOAD,2023-04-10 00:40:50,15.08843401,0.0001698,53.218,113.3319,63.1825,296.9341,7.4291e-05,8.95e-06,0.0,0 STARLINK-5446,1 54789U 22175AH  23100.02836678  .00000895  00000-0  74291-4 0  9995,2 54789  53.2180 113.3319 0001698  63.1825 296.9341 15.08843401 17459,6917.87,95.437,540.91,538.56,0.0
54789.0,STARLINK-5446,PAYLOAD,2023-04-10 07:02:23,15.0884434,0.0001658,53.2181,112.1402,66.2207,293.8959,3.2388e-05,2.27e-06,0.0,0 STARLINK-5446,1 54789U 22175AH  23100.29332761  .00000227  00000-0  32388-4 0  9998,2 54789  53.2181 112.1402 0001658  66.2207 293.8959 15.08844340 19652,6917.867,95.437,540.879,538.585,0.0
54789.0,STARLINK-5446,PAYLOAD,2023-04-10 18:10:05,15.08844511,0.0001556,53.2182,110.0589,70.0646,290.0514,5.1407e-05,5.3e-06,0.0,0 STARLINK-5446,1 54789U 22175AH  23100.75700466  .00000530  00000-0  51407-4 0  9990,2 54789  53.2182 110.0589 0001556  70.0646 290.0514 15.08844511 19727,6917.867,95.437,540.808,538.655,0.0
54789.0,STARLINK-5446,PAYLOAD,2023-04-11 06:53:09,15.08825721,0.0001697,53.2181,107.6817,64.1827,295.934,0.0004753,7.282e-05,0.0,0 STARLINK-5446,1 54789U 22175AH  23101.28691790  .00007282  00000-0  47530-3 0  9990,2 54789  53.2181 107.6817 0001697  64.1827 295.9340 15.08825721 17645,6917.924,95.438,540.963,538.615,0.0
54789.0,STARLINK-5446,PAYLOAD,2023-04-12 09:54:43,15.08835418,0.0001718,53.2181,102.6288,48.3279,311.786,-3.1968e-05,-7.97e-06,0.0,0 STARLINK-5446,1 54789U 22175AH  23102.41300427 -.00000797  00000-0 -31968-4 0  9995,2 54789  53.2181 102.6288 0001718  48.3279 311.7860 15.08835418 17818,6917.894,95.438,540.948,538.571,0.0
54789.0,STARLINK-5446,PAYLOAD,2023-04-13 00:13:11,15.08846202,0.0001534,53.2181,99.9524,49.3756,310.737,-8.9489e-05,-1.712e-05,0.0,0 STARLINK-5446,1 54789U 22175AH  23103.00915711 -.00001712  00000-0 -89489-4 0  9998,2 54789  53.2181  99.9524 0001534  49.3756 310.7370 15.08846202 17904,6917.861,95.437,540.788,538.665,0.0
54789.0,STARLINK-5446,PAYLOAD,2023-04-13 06:34:43,15.0884435,0.0001472,53.2187,98.7621,57.6274,302.486,-0.00010092,-1.894e-05,0.0,0 STARLINK-5446,1 54789U 22175AH  23103.27411728 -.00001894  00000-0 -10092-3 0  9990,2 54789  53.2187  98.7621 0001472  57.6274 302.4860 15.08844350 20103,6917.867,95.437,540.75,538.714,0.0
54789.0,STARLINK-5446,PAYLOAD,2023-04-13 16:06:57,15.08899884,0.000129,53.218,96.9769,63.3444,296.7681,0.00040996,6.253e-05,0.0,0 STARLINK-5446,1 54789U 22175AH  23103.67149405  .00006253  00000-0  40996-3 0  9992,2 54789  53.2180  96.9769 0001290  63.3444 296.7681 15.08899884 18004,6917.697,95.434,540.455,538.67,0.0
54789.0,STARLINK-5446,PAYLOAD,2023-04-14 04:49:26,15.09273546,0.0001396,53.219,94.596,67.1928,292.9212,0.0033787,0.00054546,0.0,0 STARLINK-5446,1 54789U 22175AH  23104.20100099  .00054546  00000-0  33787-2 0  9995,2 54789  53.2190  94.5960 0001396  67.1928 292.9212 15.09273546 18086,6916.556,95.41,539.386,537.455,0.0
54789.0,STARLINK-5446,PAYLOAD,2023-04-14 12:46:11,15.09324243,0.0001471,53.2189,93.109,47.143,312.9686,0.0034709,0.00056133,0.0,0 STARLINK-5446,1 54789U 22175AH  23104.53207453  .00056133  00000-0  34709-2 0  9992,2 54789  53.2189  93.1090 0001471  47.1430 312.9686 15.09324243 20298,6916.401,95.407,539.283,537.248,0.0
54789.0,STARLINK-5446,PAYLOAD,2023-04-15 04:39:41,15.0938528,0.0001474,53.2167,90.1324,42.0369,318.0737,0.0032338,0.00052339,0.0,0 STARLINK-5446,1 54789U 22175AH  23105.19422553  .00052339  00000-0  32338-2 0  9995,2 54789  53.2167  90.1324 0001474  42.0369 318.0737 15.09385280 18232,6916.214,95.403,539.099,537.06,0.0
54789.0,STARLINK-5446,PAYLOAD,2023-04-15 12:36:48,15.09140667,0.0001218,53.2188,88.6478,75.1264,284.9863,0.00098756,0.00015594,0.0,0 STARLINK-5446,1 54789U 22175AH  23105.52555866  .00015594  00000-0  98756-3 0  9995,2 54789  53.2188  88.6478 0001218  75.1264 284.9863 15.09140667 18288,6916.962,95.419,539.669,537.984,0.0
54789.0,STARLINK-5446,PAYLOAD,2023-04-15 15:47:32,15.09134189,0.0001215,53.2189,88.0557,64.1363,295.9755,0.00087045,0.00013704,0.0,0 STARLINK-5446,1 54789U 22175AH  23105.65801495  .00013704  00000-0  87045-3 0  9991,2 54789  53.2189  88.0557 0001215  64.1363 295.9755 15.09134189 20463,6916.981,95.419,539.687,538.006,0.0
54789.0,STARLINK-5446,PAYLOAD,2023-04-16 07:41:20,15.09161555,0.0001533,53.2184,85.0815,61.021,299.0936,-0.0029388,-0.00047165,0.0,0 STARLINK-5446,1 54789U 22175AH  23106.32037729 -.00047165  00000-0 -29388-2 0  9992,2 54789  53.2184  85.0815 0001533  61.0210 299.0936 15.09161555 18406,6916.898,95.417,539.823,537.702,0.0
54789.0,STARLINK-5446,PAYLOAD,2023-04-16 21:59:39,15.09132382,0.0001471,53.2175,82.4018,66.2172,293.8974,-0.0032139,-0.00051481,0.0,0 STARLINK-5446,1 54789U 22175AH  23106.91643176 -.00051481  00000-0 -32139-2 0  9990,2 54789  53.2175  82.4018 0001471  66.2172 293.8974 15.09132382 20657,6916.987,95.419,539.869,537.834,0.0
54789.0,STARLINK-5446,PAYLOAD,2023-04-17 04:21:08,15.09099636,0.0001663,53.2177,81.2147,75.5632,284.5545,-0.0028423,-0.00045559,0.0,0 STARLINK-5446,1 54789U 22175AH  23107.18134921 -.00045559  00000-0 -28423-2 0  9993,2 54789  53.2177  81.2147 0001663  75.5632 284.5545 15.09099636 18535,6917.087,95.421,540.102,537.802,0.0
54789.0,STARLINK-5446,PAYLOAD,2023-04-17 07:31:53,15.09096551,0.0001538,53.2176,80.6195,74.2268,285.8894,-0.0028659,-0.00045929,0.0,0 STARLINK-5446,1 54789U 22175AH  23107.31381184 -.00045929  00000-0 -28659-2 0  9995,2 54789  53.2176  80.6195 0001538  74.2268 285.8894 15.09096551 20719,6917.096,95.421,540.025,537.897,0.0
54789.0,STARLINK-5446,PAYLOAD,2023-04-17 15:28:47,15.09010837,0.0001797,53.2178,79.1323,78.6315,281.4879,-0.0018935,-0.00030438,0.0,0 STARLINK-5446,1 54789U 22175AH  23107.64499032 -.00030438  00000-0 -18935-2 0  9998,2 54789  53.2178  79.1323 0001797  78.6315 281.4879 15.09010837 18608,6917.358,95.427,540.466,537.98,0.0
54789.0,STARLINK-5446,PAYLOAD,2023-04-17 21:50:19,15.08938234,0.0001567,53.2178,77.9431,66.6623,293.4534,-0.0010522,-0.0001704,0.0,0 STARLINK-5446,1 54789U 22175AH  23107.90995035 -.00017040  00000-0 -10522-2 0  9999,2 54789  53.2178  77.9431 0001567  66.6623 293.4534 15.08938234 20803,6917.58,95.431,540.529,538.361,0.0
54789.0,STARLINK-5446,PAYLOAD,2023-04-18 04:11:53,15.08850636,0.0001607,53.2181,76.7533,67.5225,292.5937,-1.2816e-05,-4.92e-06,0.0,0 STARLINK-5446,1 54789U 22175AH  23108.17492013 -.00000492  00000-0 -12816-4 0  9990,2 54789  53.2181  76.7533 0001607  67.5225 292.5937 15.08850636 18689,6917.848,95.437,540.825,538.601,0.0
54789.0,STARLINK-5446,PAYLOAD,2023-04-18 07:22:39,15.08849653,0.0001586,53.2186,76.1588,66.5979,293.518,-1.7677e-05,-5.69e-06,0.0,0 STARLINK-5446,1 54789U 22175AH  23108.30739998 -.00000569  00000-0 -17677-4 0  9996,2 54789  53.2186  76.1588 0001586  66.5979 293.5180 15.08849653 20860,6917.851,95.437,540.813,538.619,0.0
54789.0,STARLINK-5446,PAYLOAD,2023-04-18 15:19:35,15.0883948,0.0001588,53.2175,74.6727,65.2699,294.8458,-0.00010468,-1.954e-05,0.0,0 STARLINK-5446,1 54789U 22175AH  23108.63860837 -.00001954  00000-0 -10468-3 0  9998,2 54789  53.2175  74.6727 0001588  65.2699 294.8458 15.08839480 18757,6917.882,95.438,540.846,538.648,0.0
54789.0,STARLINK-5446,PAYLOAD,2023-04-19 07:13:26,15.08841499,0.0001647,53.218,71.6969,76.6028,283.5148,-7.2792e-05,-1.446e-05,0.0,0 STARLINK-5446,1 54789U 22175AH  23109.30100636 -.00001446  00000-0 -72792-4 0  9992,2 54789  53.2180  71.6969 0001647  76.6028 283.5148 15.08841499 21013,6917.876,95.437,540.88,538.601,0.0
54789.0,STARLINK-5446,PAYLOAD,2023-04-20 07:04:13,15.08847503,0.0001443,53.2181,67.2366,69.9835,290.1312,-2.4115e-05,-6.72e-06,0.0,0 STARLINK-5446,1 54789U 22175AH  23110.29459730 -.00000672  00000-0 -24115-4 0  9990,2 54789  53.2181  67.2366 0001443  69.9835 290.1312 15.08847503 21166,6917.857,95.437,540.721,538.724,0.0
54789.0,STARLINK-5446,PAYLOAD,2023-04-21 03:44:14,15.08831968,0.0001522,53.2196,63.3697,79.593,280.5234,-1.0513e-05,-4.55e-06,0.0,0 STARLINK-5446,1 54789U 22175AH  23111.15572903 -.00000455  00000-0 -10513-4 0  9990,2 54789  53.2196  63.3697 0001522  79.5930 280.5234 15.08831968 19135,6917.905,95.438,540.823,538.717,0.0
54789.0,STARLINK-5446,PAYLOAD,2023-04-21 13:16:34,15.08822368,0.0001375,53.219,61.587,76.4962,283.6183,-0.00013857,-2.491e-05,0.0,0 STARLINK-5446,1 54789U 22175AH  23111.55318198 -.00002491  00000-0 -13857-3 0  9993,2 54789  53.2190  61.5870 0001375  76.4962 283.6183 15.08822368 19196,6917.934,95.439,540.75,538.848,0.0
54789.0,STARLINK-5446,PAYLOAD,2023-04-22 06:45:48,15.08843466,0.0001199,53.2195,58.3155,79.3453,280.7674,-5.2912e-05,-1.13e-05,0.0,0 STARLINK-5446,1 54789U 22175AH  23112.28180874 -.00001130  00000-0 -52912-4 0  9997,2 54789  53.2195  58.3155 0001199  79.3453 280.7674 15.08843466 21460,6917.87,95.437,540.564,538.905,0.0
54789.0,STARLINK-5446,PAYLOAD,2023-04-23 05:01:12,15.08830841,0.000134,53.2193,54.1538,79.1304,280.9839,6.3171e-05,7.17e-06,0.0,0 STARLINK-5446,1 54789U 22175AH  23113.20917512  .00000717  00000-0  63171-4 0  9994,2 54789  53.2193  54.1538 0001340  79.1304 280.9839 15.08830841 19441,6917.908,95.438,540.7,538.846,0.0
54789.0,STARLINK-5446,PAYLOAD,2023-04-24 04:51:58,15.08854389,0.0001227,53.22,49.6949,87.0844,273.0288,5.3528e-05,5.64e-06,0.0,0 STARLINK-5446,1 54789U 22175AH  23114.20275864  .00000564  00000-0  53528-4 0  9997,2 54789  53.2200  49.6949 0001227  87.0844 273.0288 15.08854389 19596,6917.836,95.437,540.55,538.853,0.0
54789.0,STARLINK-5446,PAYLOAD,2023-04-25 03:07:25,15.0881828,0.000128,53.2207,45.5318,90.2532,269.8607,-0.00022828,-3.917e-05,0.0,0 STARLINK-5446,1 54789U 22175AH  23115.13015877 -.00003917  00000-0 -22828-3 0  9991,2 54789  53.2207  45.5318 0001280  90.2532 269.8607 15.08818280 19731,6917.947,95.439,540.697,538.926,0.0
